{"type":"FeatureCollection", "features": [
{"type":"Feature","geometry":{"type":"Polygon","coordinates":[[[112.603704765,-7.16144758999997],[112.603174491,-7.16131645199994],[112.602997042,-7.16095390799995],[112.601980729,-7.16091685599997],[112.602041256,-7.16027015199995],[112.60116188,-7.16011093299994],[112.601199547,-7.15980170299997],[112.600824287,-7.15987262299996],[112.600895029,-7.15915789499996],[112.599985083,-7.15883722499996],[112.600047908,-7.15854915299997],[112.598613522,-7.15764917099995],[112.596716119,-7.15678195699996],[112.59278,-7.15600000099994],[112.5908,-7.15487999999993],[112.590499778,-7.15424860899998],[112.58989031,-7.15409693099997],[112.589459733,-7.15541889699995],[112.587216559,-7.15472815299995],[112.586451762,-7.15685308899998],[112.586310184,-7.15794505799994],[112.586016544,-7.15832604999997],[112.585965026,-7.16091701599993],[112.585058386,-7.16088388799994],[112.584471935,-7.16132510399996],[112.583557404,-7.16138538999996],[112.580968486,-7.16078377599996],[112.579569057,-7.15975396399995],[112.578508126,-7.16128891999995],[112.577422872,-7.16224381699993],[112.579123577,-7.16484631799995],[112.579603024,-7.16489358099994],[112.579689589,-7.16566373199993],[112.579010784,-7.16734311499994],[112.57951653,-7.16793697899993],[112.579427176,-7.16828616699996],[112.579589908,-7.16815126299997],[112.579684776,-7.16834070099998],[112.579151045,-7.16876237399993],[112.57974,-7.16950999999995],[112.58109,-7.16817999999995],[112.58147,-7.16831999999994],[112.582227468,-7.16730267199995],[112.58576,-7.16924999999998],[112.587503627,-7.17119900099993],[112.596512532,-7.16989097399994],[112.596827229,-7.16981258399994],[112.596957189,-7.16944363599993],[112.598409684,-7.16987362099997],[112.602717859,-7.16845930899996],[112.602761597,-7.16732465099994],[112.603026179,-7.16730528499994],[112.603074186,-7.16549121199995],[112.603560078,-7.16428594099995],[112.603704765,-7.16144758999997]]]},"properties":{"fid":10233,"ori_name":"Dahanrejo","kode_kec":"35.25.14","kode_kd":"35.25.14.2001","kode_kk":"35.25","kode_prov":"35","tipe_kd":1,"kecamatan":"Kebomas","kel_desa":"Dahanrejo","kab_kota":"Gresik","provinsi":"Jawa Timur","jenis_kd":"Desa","nama":"Desa Dahanrejo","label":"Desa Dahanrejo, Kecamatan Kebomas, Kabupaten Gresik, Provinsi Jawa Timur, 35.25.14.2001"}},
{"type":"Feature","geometry":{"type":"Polygon","coordinates":[[[112.650050664,-7.17953056199997],[112.648047683,-7.17870333299993],[112.644394046,-7.17827951399994],[112.644649734,-7.17680238699995],[112.645375296,-7.17495120399997],[112.645295393,-7.17390596599995],[112.643348454,-7.17362563099994],[112.641742375,-7.17305070699996],[112.640998715,-7.17335486299993],[112.64007216,-7.17539191099996],[112.639935552,-7.17733347399997],[112.640534988,-7.17769674699997],[112.640436475,-7.17812217799997],[112.640922771,-7.17855790699997],[112.640938187,-7.18023439999996],[112.641693705,-7.18202577399995],[112.641930757,-7.18234386999995],[112.642845318,-7.18251851099996],[112.642716622,-7.18370616099998],[112.642953189,-7.18353562599998],[112.643498275,-7.18503809099997],[112.64574864,-7.18518686899995],[112.646753656,-7.18499992199997],[112.646942058,-7.18436966999997],[112.647601605,-7.18365500799996],[112.648850975,-7.18400942299996],[112.649931502,-7.18348155399997],[112.652364536,-7.18429158299995],[112.653107164,-7.18312206399997],[112.653927008,-7.18249694999997],[112.652682273,-7.18181228799995],[112.652452409,-7.18144001899998],[112.650578806,-7.18063692399994],[112.650798277,-7.17997049299993],[112.650050664,-7.17953056199997]]]},"properties":{"fid":10637,"ori_name":"Gending","kode_kec":"35.25.14","kode_kd":"35.25.14.1014","kode_kk":"35.25","kode_prov":"35","tipe_kd":2,"kecamatan":"Kebomas","kel_desa":"Gending","kab_kota":"Gresik","provinsi":"Jawa Timur","jenis_kd":"Kelurahan","nama":"Kelurahan Gending","label":"Kelurahan Gending, Kecamatan Kebomas, Kabupaten Gresik, Provinsi Jawa Timur, 35.25.14.1014"}},
{"type":"Feature","geometry":{"type":"Polygon","coordinates":[[[112.634692545,-7.16747980299994],[112.632727105,-7.16608515499996],[112.632177021,-7.16701845699993],[112.630458016,-7.16629453699994],[112.630232871,-7.16688540899997],[112.629843341,-7.16800184499994],[112.630207761,-7.16878815999996],[112.630682917,-7.16914085999997],[112.630507065,-7.17049321699994],[112.629465199,-7.17083114099995],[112.629400247,-7.17129198499993],[112.630061401,-7.17144368799995],[112.629749945,-7.17251428499998],[112.63027574,-7.17262090299994],[112.630510012,-7.17402794599997],[112.630745318,-7.17411019499997],[112.631513646,-7.17332962299997],[112.632516563,-7.17358352999997],[112.632846407,-7.17335878799997],[112.633198172,-7.17128347199997],[112.633841155,-7.17132195699998],[112.63386323,-7.17104306999994],[112.634919031,-7.17093019599997],[112.635809821,-7.17039164899995],[112.635421777,-7.17012145399997],[112.635393985,-7.16971834899994],[112.634282038,-7.16884465599998],[112.634795752,-7.16786700099993],[112.634692545,-7.16747980299994]]]},"properties":{"fid":10688,"ori_name":"Giri","kode_kec":"35.25.14","kode_kd":"35.25.14.2009","kode_kk":"35.25","kode_prov":"35","tipe_kd":1,"kecamatan":"Kebomas","kel_desa":"Giri","kab_kota":"Gresik","provinsi":"Jawa Timur","jenis_kd":"Desa","nama":"Desa Giri","label":"Desa Giri, Kecamatan Kebomas, Kabupaten Gresik, Provinsi Jawa Timur, 35.25.14.2009"}},
{"type":"Feature","geometry":{"type":"Polygon","coordinates":[[[112.629498147,-7.17782673599993],[112.628485308,-7.17785030899995],[112.628227849,-7.17817279199994],[112.625940805,-7.17818008599994],[112.625261757,-7.17810112899997],[112.625451098,-7.17760033699994],[112.624773935,-7.17723198199997],[112.624210116,-7.17745736999996],[112.623973496,-7.17719404099995],[112.623573615,-7.17769223199997],[112.623319832,-7.17844222699995],[112.62309849,-7.17810814999996],[112.622888161,-7.17850188399996],[112.622860791,-7.17918381599998],[112.623799742,-7.17937459599995],[112.624401928,-7.18040904799994],[112.62402218,-7.18169984099995],[112.623660692,-7.18174080799997],[112.623377841,-7.18292548299996],[112.624086977,-7.18287623499998],[112.624241485,-7.18320394799997],[112.624877303,-7.18332166299996],[112.625184206,-7.18298309299996],[112.625846466,-7.18314663999996],[112.625872551,-7.18340727499998],[112.626514268,-7.18344079999997],[112.626671268,-7.18386080799996],[112.627177852,-7.18397671799994],[112.626940347,-7.18430582099995],[112.627425517,-7.18465685899997],[112.628029542,-7.18460942299993],[112.629130215,-7.18511575999997],[112.629219738,-7.18497169699998],[112.629744401,-7.18532177899993],[112.629906048,-7.18580785399996],[112.629262414,-7.18622157299995],[112.629082773,-7.18667748999997],[112.628726557,-7.18669041899994],[112.62843191,-7.18795505399993],[112.628061989,-7.18824991299994],[112.626781996,-7.18768355199995],[112.626377242,-7.18716940699994],[112.626097013,-7.18778732499993],[112.625596552,-7.19203876899996],[112.627057981,-7.19178894399994],[112.627539154,-7.19193640299994],[112.627496678,-7.19380305299995],[112.627932166,-7.19485255299998],[112.628029514,-7.19583591799994],[112.630455795,-7.19509031099994],[112.632200678,-7.19504393599993],[112.632416637,-7.19505495999994],[112.63176,-7.19190999999995],[112.63173,-7.19019999999995],[112.63354,-7.18977999999993],[112.636982957,-7.18990079099996],[112.637030695,-7.18840284599997],[112.637787163,-7.18704027899997],[112.636907153,-7.18680140899994],[112.636830384,-7.18627335899993],[112.635511898,-7.18594555699997],[112.635459368,-7.18564044799996],[112.634731994,-7.18503588399994],[112.634512921,-7.18383536999994],[112.634756874,-7.18322345599995],[112.632980751,-7.18182697099996],[112.632960304,-7.18130640299995],[112.633521202,-7.18066081499995],[112.633941456,-7.18022664199998],[112.632498042,-7.17875429499998],[112.632631786,-7.17853449799998],[112.63204187,-7.17828635699993],[112.631781599,-7.17880367399994],[112.629760369,-7.17812920399996],[112.629498147,-7.17782673599993]]]},"properties":{"fid":10799,"ori_name":"Gulomantung","kode_kec":"35.25.14","kode_kd":"35.25.14.1006","kode_kk":"35.25","kode_prov":"35","tipe_kd":2,"kecamatan":"Kebomas","kel_desa":"Gulomantung","kab_kota":"Gresik","provinsi":"Jawa Timur","jenis_kd":"Kelurahan","nama":"Kelurahan Gulomantung","label":"Kelurahan Gulomantung, Kecamatan Kebomas, Kabupaten Gresik, Provinsi Jawa Timur, 35.25.14.1006"}},
{"type":"Feature","geometry":{"type":"Polygon","coordinates":[[[112.652364536,-7.18429158299995],[112.652432062,-7.18465340699993],[112.654343491,-7.18492839399994],[112.65448765,-7.18472130199996],[112.655818056,-7.18527004099997],[112.655990241,-7.18556675699995],[112.657208592,-7.18619789299993],[112.658157769,-7.18638467099993],[112.659228901,-7.18495729999995],[112.659675177,-7.18491238199994],[112.6607692,-7.18537146799997],[112.661130647,-7.18363504599995],[112.661539268,-7.18366502499993],[112.662081242,-7.18298087699998],[112.663147879,-7.18342405699997],[112.664226617,-7.18327296599995],[112.665556549,-7.18366290799997],[112.666344338,-7.18301164199994],[112.666686585,-7.18227114399997],[112.667360703,-7.18188830099996],[112.67628215,-7.18212373699993],[112.676323766,-7.18040584299996],[112.674758362,-7.17811485399994],[112.674422572,-7.17799645999997],[112.674690661,-7.17794284899998],[112.674664256,-7.17545805899994],[112.671700923,-7.17554557899996],[112.671698137,-7.17582572399994],[112.671287651,-7.17598302199997],[112.670652132,-7.17594397199997],[112.670106243,-7.17695718699997],[112.668098859,-7.17777540499998],[112.666527846,-7.17779570699997],[112.666322111,-7.17820741199995],[112.665470724,-7.17838952399995],[112.665017336,-7.17834103699994],[112.664917865,-7.17792165599997],[112.663752284,-7.17726214099997],[112.662819434,-7.17714591699996],[112.662714931,-7.17379757199996],[112.662080239,-7.17378016199996],[112.65988752,-7.17292473599997],[112.659657043,-7.17337677399996],[112.660289921,-7.17353902299993],[112.659822756,-7.17473846799993],[112.659982272,-7.17487738499995],[112.659481248,-7.17676654999997],[112.658743347,-7.17775000399996],[112.657421981,-7.17699113899994],[112.657213142,-7.17659004899997],[112.656926909,-7.17658764599997],[112.656725358,-7.17785049999998],[112.65619661,-7.17876638899997],[112.655664008,-7.18066046199993],[112.653927008,-7.18249694999997],[112.653107164,-7.18312206399997],[112.652364536,-7.18429158299995]]]},"properties":{"fid":10872,"ori_name":"Indro","kode_kec":"35.25.14","kode_kd":"35.25.14.1019","kode_kk":"35.25","kode_prov":"35","tipe_kd":2,"kecamatan":"Kebomas","kel_desa":"Indro","kab_kota":"Gresik","provinsi":"Jawa Timur","jenis_kd":"Kelurahan","nama":"Kelurahan Indro","label":"Kelurahan Indro, Kecamatan Kebomas, Kabupaten Gresik, Provinsi Jawa Timur, 35.25.14.1019"}},
{"type":"Feature","geometry":{"type":"Polygon","coordinates":[[[112.658157769,-7.18638467099993],[112.658454486,-7.18939909799997],[112.658585895,-7.18960880999998],[112.658993702,-7.18949505299997],[112.65916146,-7.18966123999996],[112.659702492,-7.18945542099993],[112.6597024,-7.18996439299997],[112.661210728,-7.19308796199994],[112.663213497,-7.19324841799994],[112.663209484,-7.19290730699993],[112.665347225,-7.19149571599996],[112.665461439,-7.18959690599996],[112.665772754,-7.18885598499998],[112.666221873,-7.18884717599997],[112.666585498,-7.18805635799993],[112.666138455,-7.18764888099997],[112.666465703,-7.18673618399993],[112.666853031,-7.18653381299993],[112.667120563,-7.18501126799993],[112.665566578,-7.18453604099994],[112.665256393,-7.18421419199996],[112.665556549,-7.18366290799997],[112.664226617,-7.18327296599995],[112.663147879,-7.18342405699997],[112.662081242,-7.18298087699998],[112.661539268,-7.18366502499993],[112.661130647,-7.18363504599995],[112.6607692,-7.18537146799997],[112.659675177,-7.18491238199994],[112.659228901,-7.18495729999995],[112.658157769,-7.18638467099993]]]},"properties":{"fid":11536,"ori_name":"Karangkiring","kode_kec":"35.25.14","kode_kd":"35.25.14.2018","kode_kk":"35.25","kode_prov":"35","tipe_kd":1,"kecamatan":"Kebomas","kel_desa":"Karangkiring","kab_kota":"Gresik","provinsi":"Jawa Timur","jenis_kd":"Desa","nama":"Desa Karangkiring","label":"Desa Karangkiring, Kecamatan Kebomas, Kabupaten Gresik, Provinsi Jawa Timur, 35.25.14.2018"}},
{"type":"Feature","geometry":{"type":"Polygon","coordinates":[[[112.641742375,-7.17305070699996],[112.642055722,-7.17191139599993],[112.641870352,-7.17132696199997],[112.640219632,-7.17024963299997],[112.640336885,-7.16988678299998],[112.640090319,-7.16924425299993],[112.640580068,-7.16801951399998],[112.639982507,-7.16744595199998],[112.63958995,-7.16791763699996],[112.638406126,-7.16688112099996],[112.638269379,-7.16703222299998],[112.636950671,-7.16666725599993],[112.636608279,-7.16684648199993],[112.63577757,-7.16631144099995],[112.635303379,-7.16631312799996],[112.634692545,-7.16747980299994],[112.634795752,-7.16786700099993],[112.634282038,-7.16884465599998],[112.635393985,-7.16971834899994],[112.635421777,-7.17012145399997],[112.635809821,-7.17039164899995],[112.636525383,-7.17089482399996],[112.640469849,-7.17166139899996],[112.64036701,-7.17275538799993],[112.640998715,-7.17335486299993],[112.641742375,-7.17305070699996]]]},"properties":{"fid":11683,"ori_name":"Kawis Anyar","kode_kec":"35.25.14","kode_kd":"35.25.14.1011","kode_kk":"35.25","kode_prov":"35","tipe_kd":2,"kecamatan":"Kebomas","kel_desa":"Kawis Anyar","kab_kota":"Gresik","provinsi":"Jawa Timur","jenis_kd":"Kelurahan","nama":"Kelurahan Kawis Anyar","label":"Kelurahan Kawis Anyar, Kecamatan Kebomas, Kabupaten Gresik, Provinsi Jawa Timur, 35.25.14.1011"}},
{"type":"Feature","geometry":{"type":"Polygon","coordinates":[[[112.634692545,-7.16747980299994],[112.635303379,-7.16631312799996],[112.63577757,-7.16631144099995],[112.636608279,-7.16684648199993],[112.636950671,-7.16666725599993],[112.638269379,-7.16703222299998],[112.638406126,-7.16688112099996],[112.63958995,-7.16791763699996],[112.639982507,-7.16744595199998],[112.639565111,-7.16677519399997],[112.63993129,-7.16617143199994],[112.639348177,-7.16594198599995],[112.64001027,-7.16543995799998],[112.639814003,-7.16491649499994],[112.640441649,-7.16430149399997],[112.641875593,-7.16353417699997],[112.643375541,-7.16206291399993],[112.641651613,-7.16119088099992],[112.642012372,-7.16038834099993],[112.641763651,-7.15999696199998],[112.639935341,-7.15909663499997],[112.640384463,-7.15755472299998],[112.638848137,-7.15726260699995],[112.634464025,-7.15561499699993],[112.63399803,-7.15701485099993],[112.632605907,-7.15925658599997],[112.630367902,-7.16513749399996],[112.630113006,-7.16554910699995],[112.629518786,-7.16519791099995],[112.629030217,-7.16606969999998],[112.630232871,-7.16688540899997],[112.630458016,-7.16629453699994],[112.632177021,-7.16701845699993],[112.632727105,-7.16608515499996],[112.634692545,-7.16747980299994]]]},"properties":{"fid":11717,"ori_name":"Kebomas","kode_kec":"35.25.14","kode_kd":"35.25.14.1010","kode_kk":"35.25","kode_prov":"35","tipe_kd":2,"kecamatan":"Kebomas","kel_desa":"Kebomas","kab_kota":"Gresik","provinsi":"Jawa Timur","jenis_kd":"Kelurahan","nama":"Kelurahan Kebomas","label":"Kelurahan Kebomas, Kecamatan Kebomas, Kabupaten Gresik, Provinsi Jawa Timur, 35.25.14.1010"}},
{"type":"Feature","geometry":{"type":"Polygon","coordinates":[[[112.614048864,-7.17950419099998],[112.610747875,-7.17872085199997],[112.606769484,-7.17739109599995],[112.606284493,-7.17744784999996],[112.604353961,-7.17655343699994],[112.602286309,-7.17608954999997],[112.600669573,-7.17617899799995],[112.600259467,-7.17760468599994],[112.59938,-7.18059999999997],[112.59856,-7.18174999999997],[112.59661,-7.18615000199998],[112.5961,-7.18958999999995],[112.59682,-7.19064999999995],[112.59704,-7.19179999999994],[112.595810609,-7.19250921699995],[112.595950877,-7.19323863999995],[112.59539536,-7.19369305699996],[112.595237752,-7.19426958499997],[112.595472766,-7.19467215899994],[112.596045206,-7.19480830499998],[112.596284346,-7.19414768699994],[112.596888245,-7.19416375299994],[112.596733865,-7.19559948999995],[112.597223497,-7.19575300999998],[112.598191957,-7.19564032999995],[112.598798869,-7.19464668999996],[112.600023978,-7.19434898999998],[112.60033962,-7.19500504899997],[112.599060698,-7.19788090799995],[112.600798899,-7.19853361899993],[112.600980767,-7.19780892099993],[112.602076823,-7.19773899999996],[112.602349436,-7.19793955999995],[112.602046746,-7.19825279299994],[112.601789292,-7.19943647699995],[112.602574937,-7.19954284399995],[112.602989475,-7.19984796099993],[112.602850552,-7.20055514999996],[112.604141868,-7.20074563099996],[112.605755468,-7.20133230999994],[112.605265038,-7.20239684199993],[112.605106453,-7.20345613999996],[112.604271706,-7.20480231899995],[112.604405038,-7.20515985799994],[112.604087369,-7.20531450099998],[112.604568442,-7.20714383299998],[112.605089747,-7.20765247199995],[112.605727088,-7.20743464499998],[112.606414225,-7.20626642499997],[112.606679325,-7.20528255799996],[112.60625414,-7.20426069599995],[112.606681714,-7.20302892999996],[112.607115089,-7.20251758099994],[112.607812927,-7.20233832999998],[112.609275894,-7.20432027399994],[112.609446678,-7.20536986199994],[112.609300898,-7.20654134999995],[112.609634959,-7.20779665499998],[112.609953385,-7.20800383599993],[112.610560892,-7.20793710199996],[112.611808767,-7.20719496799995],[112.612753276,-7.20599968999994],[112.612664864,-7.20496278599995],[112.611791225,-7.20379709799994],[112.610008882,-7.20253029699995],[112.609822683,-7.20204258499996],[112.61138501,-7.20093792599994],[112.612853319,-7.20072928899998],[112.613495423,-7.19957101199998],[112.614219085,-7.19916624699994],[112.614800561,-7.19809831399994],[112.614722588,-7.19781580099993],[112.614234773,-7.19775468999995],[112.613976799,-7.19715566899993],[112.614423139,-7.19441824499995],[112.613957876,-7.19406187899995],[112.614396767,-7.19242706699993],[112.612693954,-7.19132496399993],[112.614178756,-7.18849284499993],[112.615081792,-7.18880382399993],[112.615704887,-7.18728335999998],[112.616554193,-7.18749588999998],[112.617088256,-7.18617679999994],[112.618466793,-7.18638601599997],[112.620195136,-7.18070363599998],[112.618068865,-7.17931274899996],[112.617879028,-7.17952767899993],[112.615274528,-7.17968267799995],[112.614048864,-7.17950419099998]]]},"properties":{"fid":11785,"ori_name":"Kedayang","kode_kec":"35.25.14","kode_kd":"35.25.14.2003","kode_kk":"35.25","kode_prov":"35","tipe_kd":1,"kecamatan":"Kebomas","kel_desa":"Kedayang","kab_kota":"Gresik","provinsi":"Jawa Timur","jenis_kd":"Desa","nama":"Desa Kedayang","label":"Desa Kedayang, Kecamatan Kebomas, Kabupaten Gresik, Provinsi Jawa Timur, 35.25.14.2003"}},
{"type":"Feature","geometry":{"type":"Polygon","coordinates":[[[112.587503627,-7.17119900099993],[112.587708231,-7.17304228599994],[112.58884,-7.17330000199996],[112.58989,-7.17404999999997],[112.590879999,-7.17535000199996],[112.59162,-7.17509000099994],[112.59175,-7.17576000099996],[112.593195579,-7.17643245499994],[112.600259467,-7.17760468599994],[112.600669573,-7.17617899799995],[112.602286309,-7.17608954999997],[112.604353961,-7.17655343699994],[112.606284493,-7.17744784999996],[112.606769484,-7.17739109599995],[112.610747875,-7.17872085199997],[112.614048864,-7.17950419099998],[112.613967872,-7.17836310599995],[112.614388134,-7.17750159999997],[112.614936508,-7.17719174999996],[112.616725105,-7.17391277699994],[112.617280619,-7.17336450099998],[112.617371832,-7.17287436299995],[112.617983026,-7.17285078699996],[112.618240801,-7.17187675299994],[112.618524925,-7.17168246699993],[112.61909257,-7.17167422699993],[112.620151539,-7.17116548999996],[112.621011591,-7.17115350599994],[112.621434504,-7.17087808499997],[112.620944931,-7.17037426899998],[112.620844538,-7.16970363299993],[112.620183396,-7.16936522799995],[112.620439125,-7.16800263999994],[112.619391915,-7.16790724799995],[112.619336541,-7.16634840199993],[112.619974756,-7.16609518799993],[112.620346824,-7.16425457999998],[112.619238809,-7.16459036199996],[112.619141739,-7.16433087799993],[112.618453947,-7.16417997199994],[112.616682345,-7.16248513399995],[112.615822743,-7.16196389299995],[112.616156016,-7.16129146099996],[112.61506912,-7.16088221499996],[112.614905229,-7.16115048099994],[112.613954124,-7.16082483399992],[112.613604506,-7.16014051299993],[112.612804728,-7.15939096399995],[112.610552862,-7.15927444999994],[112.609942132,-7.15795621099994],[112.608665317,-7.15811861399993],[112.608855379,-7.15920372399995],[112.608277706,-7.15935057299993],[112.608263783,-7.15978728199997],[112.605931752,-7.15971894499995],[112.606044864,-7.16117318199997],[112.604880917,-7.16093151899997],[112.604842818,-7.16135077399997],[112.603704765,-7.16144758999997],[112.603560078,-7.16428594099995],[112.603074186,-7.16549121199995],[112.603026179,-7.16730528499994],[112.602761597,-7.16732465099994],[112.602717859,-7.16845930899996],[112.598409684,-7.16987362099997],[112.596957189,-7.16944363599993],[112.596827229,-7.16981258399994],[112.596512532,-7.16989097399994],[112.587503627,-7.17119900099993]]]},"properties":{"fid":11962,"ori_name":"Kembangan","kode_kec":"35.25.14","kode_kd":"35.25.14.2002","kode_kk":"35.25","kode_prov":"35","tipe_kd":1,"kecamatan":"Kebomas","kel_desa":"Kembangan","kab_kota":"Gresik","provinsi":"Jawa Timur","jenis_kd":"Desa","nama":"Desa Kembangan","label":"Desa Kembangan, Kecamatan Kebomas, Kabupaten Gresik, Provinsi Jawa Timur, 35.25.14.2002"}},
{"type":"Feature","geometry":{"type":"Polygon","coordinates":[[[112.630232871,-7.16688540899997],[112.629030217,-7.16606969999998],[112.628325734,-7.16594951599996],[112.625398022,-7.16429841099995],[112.622780538,-7.16362563799993],[112.620196622,-7.16262708999994],[112.620346824,-7.16425457999998],[112.619974756,-7.16609518799993],[112.619336541,-7.16634840199993],[112.619391915,-7.16790724799995],[112.620439125,-7.16800263999994],[112.620183396,-7.16936522799995],[112.620844538,-7.16970363299993],[112.620944931,-7.17037426899998],[112.621434504,-7.17087808499997],[112.622590748,-7.17058154399996],[112.624235084,-7.17207690999993],[112.62501316,-7.17189479599995],[112.625030075,-7.17066504599995],[112.626615119,-7.17057680499994],[112.626824856,-7.17119605999994],[112.627170845,-7.17135448999994],[112.628919458,-7.17099336599995],[112.629400247,-7.17129198499993],[112.629465199,-7.17083114099995],[112.630507065,-7.17049321699994],[112.630682917,-7.16914085999997],[112.630207761,-7.16878815999996],[112.629843341,-7.16800184499994],[112.630232871,-7.16688540899997]]]},"properties":{"fid":12234,"ori_name":"Klangonan","kode_kec":"35.25.14","kode_kd":"35.25.14.2005","kode_kk":"35.25","kode_prov":"35","tipe_kd":1,"kecamatan":"Kebomas","kel_desa":"Klangonan","kab_kota":"Gresik","provinsi":"Jawa Timur","jenis_kd":"Desa","nama":"Desa Klangonan","label":"Desa Klangonan, Kecamatan Kebomas, Kabupaten Gresik, Provinsi Jawa Timur, 35.25.14.2005"}},
{"type":"Feature","geometry":{"type":"Polygon","coordinates":[[[112.640998715,-7.17335486299993],[112.64036701,-7.17275538799993],[112.640469849,-7.17166139899996],[112.636525383,-7.17089482399996],[112.636001092,-7.17162734099998],[112.63622002,-7.17180682799994],[112.63625601,-7.17308384599994],[112.636909863,-7.17344783499993],[112.63678197,-7.17405101799994],[112.63615285,-7.17530274199993],[112.635686231,-7.17562967999993],[112.635317009,-7.17557268599995],[112.635058473,-7.17615590099996],[112.63531067,-7.17703789499996],[112.635141441,-7.17756438299995],[112.636499092,-7.17780815599997],[112.636162616,-7.17853747399994],[112.635383221,-7.17910283899994],[112.635237172,-7.17953540299993],[112.635363028,-7.18009618699995],[112.635132294,-7.18058383799996],[112.635743309,-7.18101126499994],[112.635404651,-7.18154856899997],[112.633521202,-7.18066081499995],[112.632960304,-7.18130640299995],[112.632980751,-7.18182697099996],[112.634756874,-7.18322345599995],[112.634512921,-7.18383536999994],[112.634731994,-7.18503588399994],[112.635459368,-7.18564044799996],[112.635511898,-7.18594555699997],[112.636830384,-7.18627335899993],[112.636907153,-7.18680140899994],[112.637787163,-7.18704027899997],[112.639941441,-7.18660035399995],[112.641179235,-7.18749282599993],[112.641708915,-7.18890458099997],[112.643176771,-7.18907994999995],[112.642817399,-7.18833874699993],[112.642988786,-7.18779172899997],[112.643428035,-7.18765915899996],[112.643102705,-7.18592004399994],[112.643498275,-7.18503809099997],[112.642953189,-7.18353562599998],[112.642716622,-7.18370616099998],[112.642845318,-7.18251851099996],[112.641930757,-7.18234386999995],[112.641693705,-7.18202577399995],[112.640938187,-7.18023439999996],[112.640922771,-7.17855790699997],[112.640436475,-7.17812217799997],[112.640534988,-7.17769674699997],[112.639935552,-7.17733347399997],[112.64007216,-7.17539191099996],[112.640998715,-7.17335486299993]]]},"properties":{"fid":13161,"ori_name":"Ngargosari","kode_kec":"35.25.14","kode_kd":"35.25.14.1012","kode_kk":"35.25","kode_prov":"35","tipe_kd":2,"kecamatan":"Kebomas","kel_desa":"Ngargosari","kab_kota":"Gresik","provinsi":"Jawa Timur","jenis_kd":"Kelurahan","nama":"Kelurahan Ngargosari","label":"Kelurahan Ngargosari, Kecamatan Kebomas, Kabupaten Gresik, Provinsi Jawa Timur, 35.25.14.1012"}},
{"type":"Feature","geometry":{"type":"Polygon","coordinates":[[[112.623573615,-7.17769223199997],[112.622958826,-7.17737563799994],[112.62103295,-7.18102631699998],[112.620195136,-7.18070363599998],[112.618466793,-7.18638601599997],[112.617088256,-7.18617679999994],[112.616554193,-7.18749588999998],[112.615704887,-7.18728335999998],[112.615081792,-7.18880382399993],[112.614178756,-7.18849284499993],[112.612693954,-7.19132496399993],[112.614396767,-7.19242706699993],[112.613957876,-7.19406187899995],[112.614423139,-7.19441824499995],[112.613976799,-7.19715566899993],[112.614234773,-7.19775468999995],[112.614722588,-7.19781580099993],[112.614800561,-7.19809831399994],[112.614219085,-7.19916624699994],[112.613495423,-7.19957101199998],[112.612853319,-7.20072928899998],[112.614423987,-7.20130651899996],[112.615112411,-7.20228902099996],[112.615142989,-7.20355051599995],[112.614399855,-7.20685702199995],[112.614688669,-7.20770035099997],[112.615795717,-7.20764043499997],[112.616801955,-7.20714071499998],[112.617180815,-7.20650846999996],[112.617404074,-7.20427551599994],[112.617923695,-7.20331932199997],[112.618758277,-7.20243173299997],[112.620276694,-7.20171544899995],[112.620733443,-7.20276038499998],[112.619700865,-7.20675978599996],[112.619857836,-7.20865330299995],[112.620972178,-7.20865385399998],[112.62394133,-7.20776754599996],[112.624616316,-7.20726871299996],[112.625280492,-7.20605612799994],[112.62583053,-7.20331233499996],[112.625727508,-7.20156060799997],[112.62507933,-7.20090689999995],[112.624132711,-7.20073781199994],[112.622931527,-7.20181202399993],[112.62248253,-7.20193361399993],[112.621714137,-7.20172962999993],[112.62152935,-7.20101271799996],[112.623877556,-7.19899382499995],[112.625443956,-7.19708184499996],[112.628029514,-7.19583591799994],[112.627932166,-7.19485255299998],[112.627496678,-7.19380305299995],[112.627539154,-7.19193640299994],[112.627057981,-7.19178894399994],[112.625596552,-7.19203876899996],[112.626097013,-7.18778732499993],[112.626377242,-7.18716940699994],[112.626781996,-7.18768355199995],[112.628061989,-7.18824991299994],[112.62843191,-7.18795505399993],[112.628726557,-7.18669041899994],[112.629082773,-7.18667748999997],[112.629262414,-7.18622157299995],[112.629906048,-7.18580785399996],[112.629744401,-7.18532177899993],[112.629219738,-7.18497169699998],[112.629130215,-7.18511575999997],[112.628029542,-7.18460942299993],[112.627425517,-7.18465685899997],[112.626940347,-7.18430582099995],[112.627177852,-7.18397671799994],[112.626671268,-7.18386080799996],[112.626514268,-7.18344079999997],[112.625872551,-7.18340727499998],[112.625846466,-7.18314663999996],[112.625184206,-7.18298309299996],[112.624877303,-7.18332166299996],[112.624241485,-7.18320394799997],[112.624086977,-7.18287623499998],[112.623377841,-7.18292548299996],[112.623660692,-7.18174080799997],[112.62402218,-7.18169984099995],[112.624401928,-7.18040904799994],[112.623799742,-7.17937459599995],[112.622860791,-7.17918381599998],[112.622888161,-7.17850188399996],[112.62309849,-7.17810814999996],[112.623319832,-7.17844222699995],[112.623573615,-7.17769223199997]]]},"properties":{"fid":14093,"ori_name":"Prambangan","kode_kec":"35.25.14","kode_kd":"35.25.14.2020","kode_kk":"35.25","kode_prov":"35","tipe_kd":1,"kecamatan":"Kebomas","kel_desa":"Prambangan","kab_kota":"Gresik","provinsi":"Jawa Timur","jenis_kd":"Desa","nama":"Desa Prambangan","label":"Desa Prambangan, Kecamatan Kebomas, Kabupaten Gresik, Provinsi Jawa Timur, 35.25.14.2020"}},
{"type":"Feature","geometry":{"type":"Polygon","coordinates":[[[112.634464025,-7.15561499699993],[112.629277367,-7.15329550799993],[112.629485641,-7.15281778299993],[112.62520068,-7.15121278399994],[112.620554698,-7.14901331599998],[112.6194,-7.15157999999997],[112.61852,-7.15171000099997],[112.616960645,-7.15404512399994],[112.616782982,-7.15451580699994],[112.617788943,-7.15494694299997],[112.617371591,-7.15601537499998],[112.616844739,-7.15649357199993],[112.615650691,-7.15584015399997],[112.615105473,-7.15706236299997],[112.614308471,-7.15682485999997],[112.614160585,-7.15848169999992],[112.612584591,-7.15839609499994],[112.612804728,-7.15939096399995],[112.613604506,-7.16014051299993],[112.613954124,-7.16082483399992],[112.614905229,-7.16115048099994],[112.61506912,-7.16088221499996],[112.616156016,-7.16129146099996],[112.615822743,-7.16196389299995],[112.616682345,-7.16248513399995],[112.618453947,-7.16417997199994],[112.619141739,-7.16433087799993],[112.619238809,-7.16459036199996],[112.620346824,-7.16425457999998],[112.620196622,-7.16262708999994],[112.622780538,-7.16362563799993],[112.625398022,-7.16429841099995],[112.628325734,-7.16594951599996],[112.629030217,-7.16606969999998],[112.629518786,-7.16519791099995],[112.630113006,-7.16554910699995],[112.630367902,-7.16513749399996],[112.632605907,-7.15925658599997],[112.63399803,-7.15701485099993],[112.634464025,-7.15561499699993]]]},"properties":{"fid":14286,"ori_name":"Randuagung","kode_kec":"35.25.14","kode_kd":"35.25.14.2004","kode_kk":"35.25","kode_prov":"35","tipe_kd":1,"kecamatan":"Kebomas","kel_desa":"Randuagung","kab_kota":"Gresik","provinsi":"Jawa Timur","jenis_kd":"Desa","nama":"Desa Randuagung","label":"Desa Randuagung, Kecamatan Kebomas, Kabupaten Gresik, Provinsi Jawa Timur, 35.25.14.2004"}},
{"type":"Feature","geometry":{"type":"Polygon","coordinates":[[[112.643498275,-7.18503809099997],[112.643102705,-7.18592004399994],[112.643428035,-7.18765915899996],[112.642988786,-7.18779172899997],[112.642817399,-7.18833874699993],[112.643176771,-7.18907994999995],[112.641708915,-7.18890458099997],[112.641179235,-7.18749282599993],[112.639941441,-7.18660035399995],[112.637787163,-7.18704027899997],[112.637030695,-7.18840284599997],[112.636982957,-7.18990079099996],[112.63817,-7.19005000099997],[112.637602712,-7.19356874199997],[112.639641745,-7.19254611499997],[112.641151772,-7.19256296999993],[112.645266197,-7.19461380599995],[112.647941384,-7.19525438399995],[112.651074347,-7.19445925199994],[112.656119046,-7.19377540299996],[112.65518665,-7.19012474099998],[112.655557824,-7.18587297899995],[112.655818056,-7.18527004099997],[112.65448765,-7.18472130199996],[112.654343491,-7.18492839399994],[112.652432062,-7.18465340699993],[112.652364536,-7.18429158299995],[112.649931502,-7.18348155399997],[112.648850975,-7.18400942299996],[112.647601605,-7.18365500799996],[112.646942058,-7.18436966999997],[112.646753656,-7.18499992199997],[112.64574864,-7.18518686899995],[112.643498275,-7.18503809099997]]]},"properties":{"fid":14605,"ori_name":"Segoromadu","kode_kec":"35.25.14","kode_kd":"35.25.14.2013","kode_kk":"35.25","kode_prov":"35","tipe_kd":1,"kecamatan":"Kebomas","kel_desa":"Segoromadu","kab_kota":"Gresik","provinsi":"Jawa Timur","jenis_kd":"Desa","nama":"Desa Segoromadu","label":"Desa Segoromadu, Kecamatan Kebomas, Kabupaten Gresik, Provinsi Jawa Timur, 35.25.14.2013"}},
{"type":"Feature","geometry":{"type":"Polygon","coordinates":[[[112.629400247,-7.17129198499993],[112.628919458,-7.17099336599995],[112.627170845,-7.17135448999994],[112.626824856,-7.17119605999994],[112.626615119,-7.17057680499994],[112.625030075,-7.17066504599995],[112.62501316,-7.17189479599995],[112.624235084,-7.17207690999993],[112.622590748,-7.17058154399996],[112.621434504,-7.17087808499997],[112.621011591,-7.17115350599994],[112.620151539,-7.17116548999996],[112.61909257,-7.17167422699993],[112.618524925,-7.17168246699993],[112.618240801,-7.17187675299994],[112.617983026,-7.17285078699996],[112.617371832,-7.17287436299995],[112.617280619,-7.17336450099998],[112.616725105,-7.17391277699994],[112.614936508,-7.17719174999996],[112.614388134,-7.17750159999997],[112.613967872,-7.17836310599995],[112.614048864,-7.17950419099998],[112.615274528,-7.17968267799995],[112.617879028,-7.17952767899993],[112.618068865,-7.17931274899996],[112.620195136,-7.18070363599998],[112.62103295,-7.18102631699998],[112.622958826,-7.17737563799994],[112.623573615,-7.17769223199997],[112.623973496,-7.17719404099995],[112.624210116,-7.17745736999996],[112.624773935,-7.17723198199997],[112.625451098,-7.17760033699994],[112.625261757,-7.17810112899997],[112.625940805,-7.17818008599994],[112.628227849,-7.17817279199994],[112.628485308,-7.17785030899995],[112.629498147,-7.17782673599993],[112.630011047,-7.17644786699998],[112.631152895,-7.17711804999993],[112.631327795,-7.17667326999998],[112.63113285,-7.17620638899996],[112.63066305,-7.17601847899994],[112.630745318,-7.17411019499997],[112.630510012,-7.17402794599997],[112.63027574,-7.17262090299994],[112.629749945,-7.17251428499998],[112.630061401,-7.17144368799995],[112.629400247,-7.17129198499993]]]},"properties":{"fid":14629,"ori_name":"Sekarkurung","kode_kec":"35.25.14","kode_kd":"35.25.14.2021","kode_kk":"35.25","kode_prov":"35","tipe_kd":1,"kecamatan":"Kebomas","kel_desa":"Sekarkurung","kab_kota":"Gresik","provinsi":"Jawa Timur","jenis_kd":"Desa","nama":"Desa Sekarkurung","label":"Desa Sekarkurung, Kecamatan Kebomas, Kabupaten Gresik, Provinsi Jawa Timur, 35.25.14.2021"}},
{"type":"Feature","geometry":{"type":"Polygon","coordinates":[[[112.650050664,-7.17953056199997],[112.650668383,-7.17804671099998],[112.650334334,-7.17795127099993],[112.650132008,-7.17747141199993],[112.650959901,-7.17547683499993],[112.651799781,-7.17529617099996],[112.652188306,-7.17433052499996],[112.653103864,-7.17464174499997],[112.653322122,-7.17324747399994],[112.653888711,-7.17315584399995],[112.65419805,-7.17267324099993],[112.655670351,-7.16944540299994],[112.65574273,-7.16922962099994],[112.654206671,-7.16848443899994],[112.652151124,-7.16799316399994],[112.649771674,-7.16667494199993],[112.649868228,-7.16608172599996],[112.648963567,-7.16543198299996],[112.649131743,-7.16503314999994],[112.648333204,-7.16441475699997],[112.648478239,-7.16391231299997],[112.646059986,-7.16250768699996],[112.645046712,-7.16460480299997],[112.644838025,-7.16451243399996],[112.64461841,-7.16482827599998],[112.64369713,-7.16449716699998],[112.643426466,-7.16489998099996],[112.643207032,-7.16482943699998],[112.642774217,-7.16558576799997],[112.643375875,-7.16611546599995],[112.64364311,-7.16677590799998],[112.643118565,-7.16772440799997],[112.642884161,-7.16883089099997],[112.642347569,-7.16937677099997],[112.641870352,-7.17132696199997],[112.642055722,-7.17191139599993],[112.641742375,-7.17305070699996],[112.643348454,-7.17362563099994],[112.645295393,-7.17390596599995],[112.645375296,-7.17495120399997],[112.644649734,-7.17680238699995],[112.644394046,-7.17827951399994],[112.648047683,-7.17870333299993],[112.650050664,-7.17953056199997]]]},"properties":{"fid":14855,"ori_name":"Sidomoro","kode_kec":"35.25.14","kode_kd":"35.25.14.1015","kode_kk":"35.25","kode_prov":"35","tipe_kd":2,"kecamatan":"Kebomas","kel_desa":"Sidomoro","kab_kota":"Gresik","provinsi":"Jawa Timur","jenis_kd":"Kelurahan","nama":"Kelurahan Sidomoro","label":"Kelurahan Sidomoro, Kecamatan Kebomas, Kabupaten Gresik, Provinsi Jawa Timur, 35.25.14.1015"}},
{"type":"Feature","geometry":{"type":"Polygon","coordinates":[[[112.630745318,-7.17411019499997],[112.63066305,-7.17601847899994],[112.63113285,-7.17620638899996],[112.631327795,-7.17667326999998],[112.631152895,-7.17711804999993],[112.630011047,-7.17644786699998],[112.629498147,-7.17782673599993],[112.629760369,-7.17812920399996],[112.631781599,-7.17880367399994],[112.63204187,-7.17828635699993],[112.632631786,-7.17853449799998],[112.632498042,-7.17875429499998],[112.633941456,-7.18022664199998],[112.633521202,-7.18066081499995],[112.635404651,-7.18154856899997],[112.635743309,-7.18101126499994],[112.635132294,-7.18058383799996],[112.635363028,-7.18009618699995],[112.635237172,-7.17953540299993],[112.635383221,-7.17910283899994],[112.636162616,-7.17853747399994],[112.636499092,-7.17780815599997],[112.635141441,-7.17756438299995],[112.63531067,-7.17703789499996],[112.635058473,-7.17615590099996],[112.635317009,-7.17557268599995],[112.635686231,-7.17562967999993],[112.63615285,-7.17530274199993],[112.63678197,-7.17405101799994],[112.636909863,-7.17344783499993],[112.63625601,-7.17308384599994],[112.63622002,-7.17180682799994],[112.636001092,-7.17162734099998],[112.636525383,-7.17089482399996],[112.635809821,-7.17039164899995],[112.634919031,-7.17093019599997],[112.63386323,-7.17104306999994],[112.633841155,-7.17132195699998],[112.633198172,-7.17128347199997],[112.632846407,-7.17335878799997],[112.632516563,-7.17358352999997],[112.631513646,-7.17332962299997],[112.630745318,-7.17411019499997]]]},"properties":{"fid":14857,"ori_name":"Sidomukti","kode_kec":"35.25.14","kode_kd":"35.25.14.1008","kode_kk":"35.25","kode_prov":"35","tipe_kd":2,"kecamatan":"Kebomas","kel_desa":"Sidomukti","kab_kota":"Gresik","provinsi":"Jawa Timur","jenis_kd":"Kelurahan","nama":"Kelurahan Sidomukti","label":"Kelurahan Sidomukti, Kecamatan Kebomas, Kabupaten Gresik, Provinsi Jawa Timur, 35.25.14.1008"}},
{"type":"Feature","geometry":{"type":"Polygon","coordinates":[[[112.653927008,-7.18249694999997],[112.655664008,-7.18066046199993],[112.65619661,-7.17876638899997],[112.656725358,-7.17785049999998],[112.656926909,-7.17658764599997],[112.657213142,-7.17659004899997],[112.657421981,-7.17699113899994],[112.658743347,-7.17775000399996],[112.659481248,-7.17676654999997],[112.659982272,-7.17487738499995],[112.659822756,-7.17473846799993],[112.658727787,-7.17421654699996],[112.658403118,-7.17456712799998],[112.657645556,-7.17409940399995],[112.657993274,-7.17308869299995],[112.656121184,-7.17236470799998],[112.656803611,-7.16996972799996],[112.655670351,-7.16944540299994],[112.65419805,-7.17267324099993],[112.653888711,-7.17315584399995],[112.653322122,-7.17324747399994],[112.653103864,-7.17464174499997],[112.652188306,-7.17433052499996],[112.651799781,-7.17529617099996],[112.650959901,-7.17547683499993],[112.650132008,-7.17747141199993],[112.650334334,-7.17795127099993],[112.650668383,-7.17804671099998],[112.650050664,-7.17953056199997],[112.650798277,-7.17997049299993],[112.650578806,-7.18063692399994],[112.652452409,-7.18144001899998],[112.652682273,-7.18181228799995],[112.653927008,-7.18249694999997]]]},"properties":{"fid":14975,"ori_name":"Singosari","kode_kec":"35.25.14","kode_kd":"35.25.14.1017","kode_kk":"35.25","kode_prov":"35","tipe_kd":2,"kecamatan":"Kebomas","kel_desa":"Singosari","kab_kota":"Gresik","provinsi":"Jawa Timur","jenis_kd":"Kelurahan","nama":"Kelurahan Singosari","label":"Kelurahan Singosari, Kecamatan Kebomas, Kabupaten Gresik, Provinsi Jawa Timur, 35.25.14.1017"}},
{"type":"Feature","geometry":{"type":"Polygon","coordinates":[[[112.632200678,-7.19504393599993],[112.633440162,-7.19514253899996],[112.634801094,-7.19497322499996],[112.637602712,-7.19356874199997],[112.63817,-7.19005000099997],[112.636982957,-7.18990079099996],[112.63354,-7.18977999999993],[112.63173,-7.19019999999995],[112.63176,-7.19190999999995],[112.632416637,-7.19505495999994],[112.632200678,-7.19504393599993]]]},"properties":{"fid":15203,"ori_name":"Sukorejo","kode_kec":"35.25.14","kode_kd":"35.25.14.2007","kode_kk":"35.25","kode_prov":"35","tipe_kd":2,"kecamatan":"Kebomas","kel_desa":"Sukorejo","kab_kota":"Gresik","provinsi":"Jawa Timur","jenis_kd":"Kelurahan","nama":"Kelurahan Sukorejo","label":"Kelurahan Sukorejo, Kecamatan Kebomas, Kabupaten Gresik, Provinsi Jawa Timur, 35.25.14.2007"}},
{"type":"Feature","geometry":{"type":"Polygon","coordinates":[[[112.655818056,-7.18527004099997],[112.655557824,-7.18587297899995],[112.65518665,-7.19012474099998],[112.656119046,-7.19377540299996],[112.661210728,-7.19308796199994],[112.6597024,-7.18996439299997],[112.659702492,-7.18945542099993],[112.65916146,-7.18966123999996],[112.658993702,-7.18949505299997],[112.658585895,-7.18960880999998],[112.658454486,-7.18939909799997],[112.658157769,-7.18638467099993],[112.657208592,-7.18619789299993],[112.655990241,-7.18556675699995],[112.655818056,-7.18527004099997]]]},"properties":{"fid":15971,"ori_name":"Tenggulunan","kode_kec":"35.25.14","kode_kd":"35.25.14.1016","kode_kk":"35.25","kode_prov":"35","tipe_kd":2,"kecamatan":"Kebomas","kel_desa":"Tenggulunan","kab_kota":"Gresik","provinsi":"Jawa Timur","jenis_kd":"Kelurahan","nama":"Kelurahan Tenggulunan","label":"Kelurahan Tenggulunan, Kecamatan Kebomas, Kabupaten Gresik, Provinsi Jawa Timur, 35.25.14.1016"}}
]}