{"type":"FeatureCollection","name":"Kelurahan Kebomas","crs":{"type":"name","properties":{"name":"urn:ogc:def:crs:OGC:1.3:CRS84"}},"features":[{"type":"Feature","properties":{"fid":11717,"ori_name":"Kebomas","kode_kec":"35.25.14","kode_kd":"35.25.14.1010","kode_kk":"35.25","kode_prov":"35","tipe_kd":2,"kecamatan":"Kebomas","kel_desa":"Kebomas","kab_kota":"Gresik","provinsi":"Jawa Timur","jenis_kd":"Kelurahan","nama":"Kelurahan Kebomas","label":"Kelurahan Kebomas, Kecamatan Kebomas, Kabupaten Gresik, Provinsi Jawa Timur, 35.25.14.1010"},"geometry":{"type":"MultiPolygon","coordinates":[[[[112.638861161,-7.15726547999998,0],[112.639454322,-7.15739259699996,0],[112.639651939,-7.15742912299993,0],[112.639869989,-7.15746942599998,0],[112.640091211,-7.15750596899994,0],[112.640154477,-7.15751532099995,0],[112.640384463,-7.15755472299998,0],[112.640365537,-7.15762138699995,0],[112.640359132,-7.15764394699994,0],[112.640356747,-7.15765234699995,0],[112.640329304,-7.15774900799994,0],[112.640133654,-7.15843814499993,0],[112.640115544,-7.15849827899996,0],[112.639939834,-7.15908171599995,0],[112.639935341,-7.15909663499997,0],[112.640121167,-7.15921808699994,0],[112.640176878,-7.15925449899993,0],[112.640340903,-7.15936170199996,0],[112.640466992,-7.15943560999995,0],[112.640561799,-7.15949118099996,0],[112.640593082,-7.15950951899993,0],[112.640618729,-7.15952035399994,0],[112.640687511,-7.15954941199993,0],[112.640731366,-7.15956793899994,0],[112.640756886,-7.15957871999996,0],[112.640891282,-7.15963549599996,0],[112.64111868,-7.15973156399997,0],[112.641166454,-7.15975174599993,0],[112.641223773,-7.15977544399993,0],[112.641262656,-7.15979151899995,0],[112.641294049,-7.15980449799997,0],[112.641397275,-7.15984717499992,0],[112.641422727,-7.15985769699995,0],[112.641638303,-7.15994682299993,0],[112.641692556,-7.15996891999993,0],[112.641745752,-7.15998990299994,0],[112.641763651,-7.15999696199998,0],[112.64186317,-7.16010355599997,0],[112.641867988,-7.16011948599993,0],[112.641876649,-7.16012866699998,0],[112.64200611,-7.16036982899993,0],[112.642012372,-7.16038834099993,0],[112.641991532,-7.16044780899995,0],[112.641875496,-7.16073218599996,0],[112.641719421,-7.16105195399996,0],[112.641651613,-7.16119088099992,0],[112.641861991,-7.16129762299994,0],[112.641875492,-7.16131529199993,0],[112.641956992,-7.16135632899994,0],[112.641998663,-7.16137731199996,0],[112.642623681,-7.16169201399993,0],[112.642670553,-7.16171561399995,0],[112.642709452,-7.16173519999995,0],[112.643047701,-7.16190551199998,0],[112.643143026,-7.16195350899994,0],[112.643327506,-7.16204639599994,0],[112.643331893,-7.16204860499994,0],[112.643375541,-7.16206291399993,0],[112.643354236,-7.16209169199993,0],[112.643349422,-7.16209819499994,0],[112.643326285,-7.16212944599994,0],[112.643266717,-7.16218220999997,0],[112.643109625,-7.16232135599995,0],[112.64300614,-7.16241301799994,0],[112.642988212,-7.16242889899996,0],[112.642761056,-7.16266123499997,0],[112.642672011,-7.16273506299996,0],[112.642631397,-7.16276873699996,0],[112.642454524,-7.16288129999998,0],[112.642397529,-7.16291757299996,0],[112.642373687,-7.16293274699996,0],[112.642259247,-7.16307092699998,0],[112.64212711,-7.16323048099997,0],[112.642098032,-7.16326558999998,0],[112.642095196,-7.16326901399998,0],[112.642036093,-7.16334037999997,0],[112.642028678,-7.16334933299993,0],[112.642011338,-7.16337026899993,0],[112.64198196,-7.16340574299994,0],[112.641892683,-7.16351353999994,0],[112.641883969,-7.16352406299995,0],[112.641875593,-7.16353417699997,0],[112.641841002,-7.16355320099996,0],[112.641810685,-7.16356987399996,0],[112.641754149,-7.16360096699998,0],[112.64175362,-7.16360140599994,0],[112.641708606,-7.16363877499998,0],[112.641702196,-7.16364409499994,0],[112.641688128,-7.16365118399995,0],[112.641684836,-7.16365284399996,0],[112.641674911,-7.16365784599998,0],[112.641643568,-7.16367363999996,0],[112.641640933,-7.16367496699996,0],[112.641633302,-7.16367881199994,0],[112.641632397,-7.16367926799995,0],[112.641623598,-7.16368370199996,0],[112.641600147,-7.16369551999998,0],[112.64159362,-7.16369880799994,0],[112.641591321,-7.16369995999997,0],[112.641584746,-7.16370322899996,0],[112.641580456,-7.16370536199997,0],[112.641570798,-7.16371016499994,0],[112.641549246,-7.16372087999997,0],[112.641548209,-7.16372139399994,0],[112.641519246,-7.16373579599997,0],[112.641495225,-7.16374773999996,0],[112.641441843,-7.16377428299995,0],[112.641405907,-7.16379214899996,0],[112.641367298,-7.16380025999996,0],[112.641274542,-7.16381974099994,0],[112.641195238,-7.16381324299994,0],[112.641172666,-7.16382688399995,0],[112.641068719,-7.16392227099993,0],[112.641056377,-7.16393106499993,0],[112.640968443,-7.16399372399997,0],[112.640906017,-7.16403820799997,0],[112.640797533,-7.16411769899997,0],[112.640677752,-7.16419044799994,0],[112.640441649,-7.16430149399997,0],[112.640395672,-7.16434654599993,0],[112.640323334,-7.16441742599994,0],[112.640265018,-7.16447456599997,0],[112.640179591,-7.16455827199997,0],[112.640004162,-7.16473016499998,0],[112.640003917,-7.16473040599993,0],[112.639954983,-7.16477835499995,0],[112.639843075,-7.16488800699994,0],[112.639814003,-7.16491649499994,0],[112.639884565,-7.16500438699995,0],[112.639748891,-7.16507954499997,0],[112.639783052,-7.16513366499993,0],[112.639819379,-7.16516743899996,0],[112.63987608,-7.16517853499994,0],[112.639933139,-7.16528969599995,0],[112.639935816,-7.16529490899995,0],[112.640006675,-7.16543295399993,0],[112.64001027,-7.16543995799998,0],[112.64000671,-7.16544265899995,0],[112.639932215,-7.16549914499996,0],[112.639577326,-7.16576823599996,0],[112.639348177,-7.16594198599995,0],[112.639391907,-7.16595828399994,0],[112.639607682,-7.16604355199996,0],[112.639690418,-7.16607624599993,0],[112.63993129,-7.16617143199994,0],[112.639912457,-7.16620935399993,0],[112.639878704,-7.16627731899996,0],[112.63981199,-7.16641165099998,0],[112.639806029,-7.16642365499996,0],[112.63980906,-7.16643666399995,0],[112.639795272,-7.16645579699997,0],[112.639753472,-7.16651380599995,0],[112.639621275,-7.16669725599996,0],[112.639565437,-7.16677474199997,0],[112.639565111,-7.16677519399997,0],[112.639711935,-7.16691794699994,0],[112.639969495,-7.16716836499995,0],[112.639978498,-7.16720169299998,0],[112.639977601,-7.16728648099996,0],[112.63997621,-7.16741794899997,0],[112.639982507,-7.16744595199998,0],[112.639982485,-7.16744597799993,0],[112.63958995,-7.16791763699996,0],[112.638984448,-7.16744047199995,0],[112.638406126,-7.16688112099996,0],[112.638269379,-7.16703222299998,0],[112.637568438,-7.16673349199993,0],[112.636950671,-7.16666725599993,0],[112.636608279,-7.16684648199993,0],[112.636031305,-7.16645491399993,0],[112.63577757,-7.16631144099995,0],[112.635584726,-7.16632821999997,0],[112.635303379,-7.16631312799996,0],[112.635199366,-7.16645389599995,0],[112.635105776,-7.16658649099998,0],[112.634960469,-7.16689158099996,0],[112.634842898,-7.16716601599995,0],[112.634731305,-7.16746321099993,0],[112.634692545,-7.16747980299994,0],[112.633979952,-7.16699080599994,0],[112.633565471,-7.16665389399998,0],[112.633221478,-7.16644700499995,0],[112.632727105,-7.16608515499996,0],[112.632584889,-7.16629458299997,0],[112.632513041,-7.16645349899994,0],[112.632476857,-7.16652269699995,0],[112.632384882,-7.16668991199998,0],[112.632254225,-7.16689595499997,0],[112.632177021,-7.16701845699993,0],[112.630826265,-7.16645794999994,0],[112.630458016,-7.16629453699994,0],[112.630386706,-7.16645797099994,0],[112.630232871,-7.16688540899997,0],[112.629376687,-7.16644871499994,0],[112.629125526,-7.16614738099997,0],[112.629030217,-7.16606969999998,0],[112.629137842,-7.16578933399995,0],[112.629315947,-7.16536397999994,0],[112.629518786,-7.16519791099995,0],[112.629562322,-7.16518030899994,0],[112.629634247,-7.16529495799995,0],[112.629716444,-7.16535903599993,0],[112.62984755,-7.16544734799993,0],[112.630113006,-7.16554910699995,0],[112.63014609,-7.16553163299994,0],[112.630244945,-7.16536764899996,0],[112.630367902,-7.16513749399996,0],[112.630430171,-7.16499280599993,0],[112.630435131,-7.16493908799993,0],[112.630452067,-7.16481020099997,0],[112.63049515,-7.16466558099995,0],[112.630535004,-7.16457837999997,0],[112.630445901,-7.16454569999996,0],[112.630530889,-7.16440789099994,0],[112.630669211,-7.16398502899995,0],[112.630901279,-7.16341013499994,0],[112.631074219,-7.16298136399996,0],[112.6312167,-7.16284678899996,0],[112.63128956,-7.16265731299995,0],[112.631519758,-7.16214471699993,0],[112.631594012,-7.16188571399994,0],[112.631716411,-7.16147800499994,0],[112.631893573,-7.16112434599995,0],[112.632123906,-7.16067096199993,0],[112.632352728,-7.16017066299997,0],[112.632428727,-7.15996155899995,0],[112.632497349,-7.15965149799996,0],[112.632588712,-7.15931233599997,0],[112.632605907,-7.15925658599997,0],[112.632659664,-7.15915369499993,0],[112.632682172,-7.15912233599994,0],[112.632706465,-7.15908916099994,0],[112.632893937,-7.15884304699995,0],[112.633000184,-7.15867957999995,0],[112.633085001,-7.15849947499993,0],[112.633192304,-7.15827162399995,0],[112.633301441,-7.15806059399995,0],[112.633381446,-7.15792849999997,0],[112.633618948,-7.15751857499993,0],[112.633742805,-7.15735341799996,0],[112.633892141,-7.15715273299998,0],[112.63399803,-7.15701485099993,0],[112.63409606,-7.15666174299997,0],[112.634119994,-7.15652767999995,0],[112.634157751,-7.15635523399993,0],[112.634202531,-7.15620536399996,0],[112.634237115,-7.15610606799993,0],[112.634315328,-7.15597406999996,0],[112.634382975,-7.15587284699996,0],[112.634452223,-7.15571773799996,0],[112.634464025,-7.15561499699993,0],[112.634521537,-7.15564453599995,0],[112.634817873,-7.15578560899996,0],[112.634980468,-7.15586301299993,0],[112.635391394,-7.15605863599995,0],[112.63547,-7.15609605699996,0],[112.6355174,-7.15611862199995,0],[112.635702286,-7.15620663699997,0],[112.636268389,-7.15641005699996,0],[112.636295599,-7.15641983699993,0],[112.636482049,-7.15648683199993,0],[112.636786966,-7.15656706499993,0],[112.637112251,-7.15665265399997,0],[112.637121454,-7.15665593999995,0],[112.637259518,-7.15670524399997,0],[112.637285835,-7.15671464099995,0],[112.637412666,-7.15675992999996,0],[112.637489741,-7.15678745299994,0],[112.637489801,-7.15678747399994,0],[112.637956182,-7.15695060999997,0],[112.638157934,-7.15702118299993,0],[112.638329648,-7.15708124699995,0],[112.638521192,-7.15714824499997,0],[112.6386594,-7.15719658899997,0],[112.638689546,-7.15720713499996,0],[112.638718732,-7.15721734299996,0],[112.638792212,-7.15724304499997,0],[112.63881138,-7.15724975199993,0],[112.638816068,-7.15725138899995,0],[112.638822664,-7.15725369599994,0],[112.638845964,-7.15726184699997,0],[112.638848137,-7.15726260699995,0],[112.638854675,-7.15726408599994,0],[112.638855053,-7.15726416999996,0],[112.63885533,-7.15726423199993,0],[112.638859177,-7.15726505499993,0],[112.638859905,-7.15726521099998,0],[112.638861161,-7.15726547999998,0]]]]}}]}